CCSDS_OMM_VERS = 2.0
CREATION_DATE  = 
ORIGINATOR     = 

OBJECT_NAME    = ATLAS CENTAUR 2
OBJECT_ID      = 1963-047A
CENTER_NAME    = EARTH
REF_FRAME      = TEME
TIME_SYSTEM    = UTC
MEAN_ELEMENT_THEORY = SGP/SGP4

EPOCH          = 2026-03-24T09:23:40.742592
MEAN_MOTION    = 14.12121855
ECCENTRICITY   = .05474136
INCLINATION    = 30.3547
RA_OF_ASC_NODE = 113.4760
ARG_OF_PERICENTER = 209.8640
MEAN_ANOMALY   = 146.9631

EPHEMERIS_TYPE = 0
CLASSIFICATION_TYPE = U
NORAD_CAT_ID   = 694
ELEMENT_SET_NO = 999
REV_AT_EPOCH   = 13370
BSTAR          = .25803315E-3
MEAN_MOTION_DOT = .2225E-4
MEAN_MOTION_DDOT = 0

CCSDS_OMM_VERS = 2.0
CREATION_DATE  = 
ORIGINATOR     = 

OBJECT_NAME    = THOR AGENA D R/B
OBJECT_ID      = 1964-002A
CENTER_NAME    = EARTH
REF_FRAME      = TEME
TIME_SYSTEM    = UTC
MEAN_ELEMENT_THEORY = SGP/SGP4

EPOCH          = 2026-03-24T22:36:33.972768
MEAN_MOTION    = 14.34027860
ECCENTRICITY   = .00323812
INCLINATION    = 99.1218
RA_OF_ASC_NODE = 98.1108
ARG_OF_PERICENTER = 212.5995
MEAN_ANOMALY   = 147.3189

EPHEMERIS_TYPE = 0
CLASSIFICATION_TYPE = U
NORAD_CAT_ID   = 733
ELEMENT_SET_NO = 999
REV_AT_EPOCH   = 24048
BSTAR          = .77230745E-4
MEAN_MOTION_DOT = .168E-5
MEAN_MOTION_DDOT = 0

CCSDS_OMM_VERS = 2.0
CREATION_DATE  = 
ORIGINATOR     = 

OBJECT_NAME    = SL-3 R/B
OBJECT_ID      = 1964-053B
CENTER_NAME    = EARTH
REF_FRAME      = TEME
TIME_SYSTEM    = UTC
MEAN_ELEMENT_THEORY = SGP/SGP4

EPOCH          = 2026-03-24T21:13:17.036544
MEAN_MOTION    = 14.61378181
ECCENTRICITY   = .00802739
INCLINATION    = 65.0757
RA_OF_ASC_NODE = 286.6892
ARG_OF_PERICENTER = 287.4296
MEAN_ANOMALY   = 71.8039

EPHEMERIS_TYPE = 0
CLASSIFICATION_TYPE = U
NORAD_CAT_ID   = 877
ELEMENT_SET_NO = 999
REV_AT_EPOCH   = 26901
BSTAR          = .57068082E-4
MEAN_MOTION_DOT = .17E-5
MEAN_MOTION_DDOT = 0

CCSDS_OMM_VERS = 2.0
CREATION_DATE  = 
ORIGINATOR     = 

OBJECT_NAME    = SL-8 R/B
OBJECT_ID      = 1967-045B
CENTER_NAME    = EARTH
REF_FRAME      = TEME
TIME_SYSTEM    = UTC
MEAN_ELEMENT_THEORY = SGP/SGP4

EPOCH          = 2026-03-24T22:30:26.871264
MEAN_MOTION    = 14.45634592
ECCENTRICITY   = .00647551
INCLINATION    = 74.0118
RA_OF_ASC_NODE = 319.6144
ARG_OF_PERICENTER = 322.4736
MEAN_ANOMALY   = 37.1909

EPHEMERIS_TYPE = 0
CLASSIFICATION_TYPE = U
NORAD_CAT_ID   = 2802
ELEMENT_SET_NO = 999
REV_AT_EPOCH   = 9122
BSTAR          = .88225373E-4
MEAN_MOTION_DOT = .291E-5
MEAN_MOTION_DDOT = 0

CCSDS_OMM_VERS = 2.0
CREATION_DATE  = 
ORIGINATOR     = 

OBJECT_NAME    = SL-8 R/B
OBJECT_ID      = 1968-040B
CENTER_NAME    = EARTH
REF_FRAME      = TEME
TIME_SYSTEM    = UTC
MEAN_ELEMENT_THEORY = SGP/SGP4

EPOCH          = 2026-03-24T21:11:08.949408
MEAN_MOTION    = 15.03352667
ECCENTRICITY   = .00234198
INCLINATION    = 74.0292
RA_OF_ASC_NODE = 282.6455
ARG_OF_PERICENTER = 100.4816
MEAN_ANOMALY   = 259.9013

EPHEMERIS_TYPE = 0
CLASSIFICATION_TYPE = U
NORAD_CAT_ID   = 3230
ELEMENT_SET_NO = 999
REV_AT_EPOCH   = 9229
BSTAR          = .23383263E-3
MEAN_MOTION_DOT = .3153E-4
MEAN_MOTION_DDOT = 0

CCSDS_OMM_VERS = 2.0
CREATION_DATE  = 
ORIGINATOR     = 

OBJECT_NAME    = OAO 2
OBJECT_ID      = 1968-110A
CENTER_NAME    = EARTH
REF_FRAME      = TEME
TIME_SYSTEM    = UTC
MEAN_ELEMENT_THEORY = SGP/SGP4

EPOCH          = 2026-03-24T23:02:49.005888
MEAN_MOTION    = 14.47316035
ECCENTRICITY   = .00060366
INCLINATION    = 34.9926
RA_OF_ASC_NODE = 179.9611
ARG_OF_PERICENTER = 316.1078
MEAN_ANOMALY   = 43.9132

EPHEMERIS_TYPE = 0
CLASSIFICATION_TYPE = U
NORAD_CAT_ID   = 3597
ELEMENT_SET_NO = 999
REV_AT_EPOCH   = 2131
BSTAR          = .65622407E-4
MEAN_MOTION_DOT = .225E-5
MEAN_MOTION_DDOT = 0

CCSDS_OMM_VERS = 2.0
CREATION_DATE  = 
ORIGINATOR     = 

OBJECT_NAME    = ISIS 1
OBJECT_ID      = 1969-009A
CENTER_NAME    = EARTH
REF_FRAME      = TEME
TIME_SYSTEM    = UTC
MEAN_ELEMENT_THEORY = SGP/SGP4

EPOCH          = 2026-03-24T22:36:40.273056
MEAN_MOTION    = 11.30418109
ECCENTRICITY   = .17078721
INCLINATION    = 88.4517
RA_OF_ASC_NODE = 153.6445
ARG_OF_PERICENTER = 58.3949
MEAN_ANOMALY   = 317.2529

EPHEMERIS_TYPE = 0
CLASSIFICATION_TYPE = U
NORAD_CAT_ID   = 3669
ELEMENT_SET_NO = 999
REV_AT_EPOCH   = 35025
BSTAR          = .65850635E-4
MEAN_MOTION_DOT = .113E-5
MEAN_MOTION_DDOT = 0

CCSDS_OMM_VERS = 2.0
CREATION_DATE  = 
ORIGINATOR     = 

OBJECT_NAME    = SERT 2
OBJECT_ID      = 1970-009A
CENTER_NAME    = EARTH
REF_FRAME      = TEME
TIME_SYSTEM    = UTC
MEAN_ELEMENT_THEORY = SGP/SGP4

EPOCH          = 2026-03-24T18:50:38.463360
MEAN_MOTION    = 13.58731192
ECCENTRICITY   = .00055315
INCLINATION    = 99.2778
RA_OF_ASC_NODE = 26.0542
ARG_OF_PERICENTER = 120.4883
MEAN_ANOMALY   = 257.4208

EPHEMERIS_TYPE = 0
CLASSIFICATION_TYPE = U
NORAD_CAT_ID   = 4327
ELEMENT_SET_NO = 999
REV_AT_EPOCH   = 78194
BSTAR          = .77331451E-4
MEAN_MOTION_DOT = .15E-6
MEAN_MOTION_DDOT = 0

CCSDS_OMM_VERS = 2.0
CREATION_DATE  = 
ORIGINATOR     = 

OBJECT_NAME    = SL-3 R/B
OBJECT_ID      = 1971-028B
CENTER_NAME    = EARTH
REF_FRAME      = TEME
TIME_SYSTEM    = UTC
MEAN_ELEMENT_THEORY = SGP/SGP4

EPOCH          = 2026-03-24T21:43:05.738592
MEAN_MOTION    = 15.62457708
ECCENTRICITY   = .00139899
INCLINATION    = 81.2372
RA_OF_ASC_NODE = 33.2199
ARG_OF_PERICENTER = 221.1770
MEAN_ANOMALY   = 138.8429

EPHEMERIS_TYPE = 0
CLASSIFICATION_TYPE = U
NORAD_CAT_ID   = 5118
ELEMENT_SET_NO = 999
REV_AT_EPOCH   = 99104
BSTAR          = .43451557E-3
MEAN_MOTION_DOT = .38895E-3
MEAN_MOTION_DDOT = 0

CCSDS_OMM_VERS = 2.0
CREATION_DATE  = 
ORIGINATOR     = 

OBJECT_NAME    = ASTEX 1
OBJECT_ID      = 1971-089A
CENTER_NAME    = EARTH
REF_FRAME      = TEME
TIME_SYSTEM    = UTC
MEAN_ELEMENT_THEORY = SGP/SGP4

EPOCH          = 2026-03-24T22:15:27.880992
MEAN_MOTION    = 14.50784906
ECCENTRICITY   = .00168773
INCLINATION    = 92.7098
RA_OF_ASC_NODE = 156.6851
ARG_OF_PERICENTER = 40.3007
MEAN_ANOMALY   = 319.9447

EPHEMERIS_TYPE = 0
CLASSIFICATION_TYPE = U
NORAD_CAT_ID   = 5560
ELEMENT_SET_NO = 999
REV_AT_EPOCH   = 86451
BSTAR          = .10573486E-3
MEAN_MOTION_DOT = .416E-5
MEAN_MOTION_DDOT = 0

CCSDS_OMM_VERS = 2.0
CREATION_DATE  = 
ORIGINATOR     = 

OBJECT_NAME    = SL-8 R/B
OBJECT_ID      = 1971-119B
CENTER_NAME    = EARTH
REF_FRAME      = TEME
TIME_SYSTEM    = UTC
MEAN_ELEMENT_THEORY = SGP/SGP4

EPOCH          = 2026-03-24T21:26:04.739424
MEAN_MOTION    = 14.38165237
ECCENTRICITY   = .05468648
INCLINATION    = 73.8860
RA_OF_ASC_NODE = 147.2960
ARG_OF_PERICENTER = 110.7158
MEAN_ANOMALY   = 255.3483

EPHEMERIS_TYPE = 0
CLASSIFICATION_TYPE = U
NORAD_CAT_ID   = 5730
ELEMENT_SET_NO = 999
REV_AT_EPOCH   = 65767
BSTAR          = .34455856E-3
MEAN_MOTION_DOT = .6575E-4
MEAN_MOTION_DDOT = 0

CCSDS_OMM_VERS = 2.0
CREATION_DATE  = 
ORIGINATOR     = 

OBJECT_NAME    = OAO 3 (COPERNICUS)
OBJECT_ID      = 1972-065A
CENTER_NAME    = EARTH
REF_FRAME      = TEME
TIME_SYSTEM    = UTC
MEAN_ELEMENT_THEORY = SGP/SGP4

EPOCH          = 2026-03-24T17:32:18.479616
MEAN_MOTION    = 14.60009467
ECCENTRICITY   = .00073115
INCLINATION    = 35.0049
RA_OF_ASC_NODE = 211.6183
ARG_OF_PERICENTER = 283.1058
MEAN_ANOMALY   = 233.2269

EPHEMERIS_TYPE = 0
CLASSIFICATION_TYPE = U
NORAD_CAT_ID   = 6153
ELEMENT_SET_NO = 999
REV_AT_EPOCH   = 84839
BSTAR          = .71943867E-4
MEAN_MOTION_DOT = .33E-5
MEAN_MOTION_DDOT = 0

