ATLAS CENTAUR 2         
1 00694U 63047A   26083.39144378  .00002225  00000+0  25803-3 0  9998
2 00694  30.3547 113.4760 0547413 209.8640 146.9631 14.12121855133702
THOR AGENA D R/B        
1 00733U 64002A   26083.94205987  .00000168  00000+0  77231-4 0  9996
2 00733  99.1218  98.1108 0032381 212.5995 147.3189 14.34027860240488
SL-3 R/B                
1 00877U 64053B   26083.88422496  .00000170  00000+0  57068-4 0  9999
2 00877  65.0757 286.6892 0080273 287.4296  71.8039 14.61378181269019
SL-8 R/B                
1 02802U 67045B   26083.93781101  .00000291  00000+0  88225-4 0  9993
2 02802  74.0118 319.6144 0064755 322.4736  37.1909 14.45634592 91223
SL-8 R/B                
1 03230U 68040B   26083.88274247  .00003153  00000+0  23383-3 0  9990
2 03230  74.0292 282.6455 0023419 100.4816 259.9013 15.03352667 92294
OAO 2                   
1 03597U 68110A   26083.96028942  .00000225  00000+0  65622-4 0  9992
2 03597  34.9926 179.9611 0006036 316.1078  43.9132 14.47316035 21317
ISIS 1                  
1 03669U 69009A   26083.94213279  .00000113  00000+0  65851-4 0  9997
2 03669  88.4517 153.6445 1707872  58.3949 317.2529 11.30418109350259
SERT 2                  
1 04327U 70009A   26083.78516740  .00000015  00000+0  77331-4 0  9999
2 04327  99.2778  26.0542 0005531 120.4883 257.4208 13.58731192781946
SL-3 R/B                
1 05118U 71028B   26083.90492753  .00038895  00000+0  43452-3 0  9994
2 05118  81.2372  33.2199 0013989 221.1770 138.8429 15.62457708991040
ASTEX 1                 
1 05560U 71089A   26083.92740603  .00000416  00000+0  10573-3 0  9990
2 05560  92.7098 156.6851 0016877  40.3007 319.9447 14.50784906864513
SL-8 R/B                
1 05730U 71119B   26083.89311041  .00006575  00000+0  34456-3 0  9997
2 05730  73.8860 147.2960 0546864 110.7158 255.3483 14.38165237657675
OAO 3 (COPERNICUS)      
1 06153U 72065A   26083.73076944  .00000330  00000+0  71944-4 0  9998
2 06153  35.0049 211.6183 0007311 283.1058 233.2269 14.60009467848395
